PELICAN-4               
1 65316U 25188B   26117.14420970  .00001370  00000+0  35679-4 0  9993
2 65316  97.1983 194.2143 0004260 142.1086 218.0461 15.40586175 37451
PELICAN-5               
1 66667U 25276B   26117.09434953  .00005287  00000+0  19341-3 0  9999
2 66667  97.4165 192.2596 0004584 145.6522 214.5015 15.28485967 22710
PELICAN-6               
1 66703U 25276AP  26117.09619980  .00005562  00000+0  20102-3 0  9998
2 66703  97.4160 192.4201 0002731  60.2867 299.8644 15.28866903 22725
FLOCK 4H-1              
1 66704U 25276AQ  26116.77474035  .00007622  00000+0  35727-3 0  9991
2 66704  97.4194 191.2918 0003485 121.9995 238.1579 15.19961536 22629
FLOCK 4H-2              
1 66705U 25276AR  26117.15691088  .00008710  00000+0  40469-3 0  9992
2 66705  97.4190 191.6895 0002705 119.3454 240.8052 15.20227827 22681
FLOCK 4H-3              
1 66706U 25276AS  26117.16730538  .00008409  00000+0  40075-3 0  9996
2 66706  97.4258 191.6575 0004652 159.7596 200.3824 15.19352378 22675
FLOCK 4H-4              
1 66707U 25276AT  26117.19150972  .00007696  00000+0  36963-3 0  9996
2 66707  97.4242 191.5931 0005153 162.6579 197.4833 15.19110426 22677
FLOCK 4H-5              
1 66708U 25276AU  26117.16468337  .00008724  00000+0  40778-3 0  9993
2 66708  97.4194 191.6913 0002218 115.3717 244.7748 15.20020879 22689
FLOCK 4H-6              
1 66709U 25276AV  26117.19420105  .00007236  00000+0  34206-3 0  9994
2 66709  97.4245 191.7491 0004465 134.8009 225.3590 15.19684681 22680
FLOCK 4H-7              
1 66710U 25276AW  26116.76823837  .00007912  00000+0  37656-3 0  9990
2 66710  97.4202 191.1606 0002452 169.0472 191.0816 15.19422699 22617
FLOCK 4H-8              
1 66711U 25276AX  26117.09331241  .00007709  00000+0  36607-3 0  9990
2 66711  97.4243 191.5770 0003841 169.3877 190.7439 15.19506655 22661
FLOCK 4H-9              
1 66712U 25276AY  26117.18838333  .00007554  00000+0  35568-3 0  9998
2 66712  97.4235 191.7395 0004459 140.4682 219.6879 15.19804867 22685
FLOCK 4H-10             
1 66713U 25276AZ  26117.18202076  .00007474  00000+0  35780-3 0  9995
2 66713  97.4209 191.5401 0005103 162.9061 197.2347 15.19233769 22677
FLOCK 4H-11             
1 66714U 25276BA  26117.21023764  .00018687  00000+0  83835-3 0  9997
2 66714  97.4221 191.8424 0003610 167.0025 193.1305 15.21241713 22699
FLOCK 4H-12             
1 66715U 25276BB  26117.17756176  .00007357  00000+0  34612-3 0  9994
2 66715  97.4205 191.6876 0003544 125.8229 234.3336 15.19848296 22996
FLOCK 4H-13             
1 66716U 25276BC  26117.09207015  .00007645  00000+0  35679-3 0  9993
2 66716  97.4240 191.7206 0002867 110.2450 249.9093 15.20115457 22670
FLOCK 4H-14             
1 66717U 25276BD  26117.20291168  .00008261  00000+0  38188-3 0  9992
2 66717  97.4223 191.8496 0002529 107.1219 253.0293 15.20420234 21946
